[{"OBJECT_NAME":"STARLINK-30552","OBJECT_ID":"2023-153J","EPOCH":"2026-03-09T22:00:01.999584","MEAN_MOTION":15.2672356,"ECCENTRICITY":0.00011544,"INCLINATION":43.0006,"RA_OF_ASC_NODE":65.8896,"ARG_OF_PERICENTER":264.2372,"MEAN_ANOMALY":312.9153,"EPHEMERIS_TYPE":0,"CLASSIFICATION_TYPE":"U","NORAD_CAT_ID":57999,"ELEMENT_SET_NO":999,"REV_AT_EPOCH":578,"BSTAR":0.0013314841,"MEAN_MOTION_DOT":0.0003561,"MEAN_MOTION_DDOT":0},{"OBJECT_NAME":"OBJECT D","OBJECT_ID":"2025-197D","EPOCH":"2026-03-09T23:30:56.303712","MEAN_MOTION":15.25287442,"ECCENTRICITY":0.00144425,"INCLINATION":97.4091,"RA_OF_ASC_NODE":257.3677,"ARG_OF_PERICENTER":3.398,"MEAN_ANOMALY":356.7353,"EPHEMERIS_TYPE":0,"CLASSIFICATION_TYPE":"U","NORAD_CAT_ID":65491,"ELEMENT_SET_NO":999,"REV_AT_EPOCH":2822,"BSTAR":0.00037200129,"MEAN_MOTION_DOT":9.321e-5,"MEAN_MOTION_DDOT":0}]
